XRISM                   
1 57800U 23137A   23313.73625239  .00006510  00000+0  52392-3 0  9990
2 57800  31.0052 332.8233 0010384 186.9398 173.1094 14.98552964  9486
